[{"OBJECT_NAME":"STARLINK-4437","OBJECT_ID":"2022-099AT","EPOCH":"2022-08-29T16:00:00.999936","MEAN_MOTION":15.65860772,"ECCENTRICITY":0.0001916,"INCLINATION":97.6558,"RA_OF_ASC_NODE":0.4697,"ARG_OF_PERICENTER":62.5901,"MEAN_ANOMALY":26.4249,"EPHEMERIS_TYPE":0,"CLASSIFICATION_TYPE":"U","NORAD_CAT_ID":53506,"ELEMENT_SET_NO":999,"REV_AT_EPOCH":288,"BSTAR":-0.014269,"MEAN_MOTION_DOT":-0.012919,"MEAN_MOTION_DDOT":0},{"OBJECT_NAME":"STARLINK-4444","OBJECT_ID":"2022-099AU","EPOCH":"2022-08-29T16:00:00.999936","MEAN_MOTION":15.65836052,"ECCENTRICITY":0.0001797,"INCLINATION":97.6557,"RA_OF_ASC_NODE":0.47,"ARG_OF_PERICENTER":60.3144,"MEAN_ANOMALY":30.6445,"EPHEMERIS_TYPE":0,"CLASSIFICATION_TYPE":"U","NORAD_CAT_ID":53507,"ELEMENT_SET_NO":999,"REV_AT_EPOCH":288,"BSTAR":-0.013552,"MEAN_MOTION_DOT":-0.01232325,"MEAN_MOTION_DDOT":0},{"OBJECT_NAME":"STARLINK-4443","OBJECT_ID":"2022-099AV","EPOCH":"2022-08-29T16:00:00.999936","MEAN_MOTION":15.65819136,"ECCENTRICITY":0.0001844,"INCLINATION":97.6559,"RA_OF_ASC_NODE":0.4698,"ARG_OF_PERICENTER":55.4971,"MEAN_ANOMALY":34.1831,"EPHEMERIS_TYPE":0,"CLASSIFICATION_TYPE":"U","NORAD_CAT_ID":53508,"ELEMENT_SET_NO":999,"REV_AT_EPOCH":288,"BSTAR":-0.013521,"MEAN_MOTION_DOT":-0.01229055,"MEAN_MOTION_DDOT":0},{"OBJECT_NAME":"STARLINK-4402","OBJECT_ID":"2022-099AW","EPOCH":"2022-08-29T16:00:00.999936","MEAN_MOTION":15.65845952,"ECCENTRICITY":0.0001847,"INCLINATION":97.6558,"RA_OF_ASC_NODE":0.4701,"ARG_OF_PERICENTER":55.6202,"MEAN_ANOMALY":36.6208,"EPHEMERIS_TYPE":0,"CLASSIFICATION_TYPE":"U","NORAD_CAT_ID":53509,"ELEMENT_SET_NO":999,"REV_AT_EPOCH":288,"BSTAR":-0.013476,"MEAN_MOTION_DOT":-0.01226562,"MEAN_MOTION_DDOT":0},{"OBJECT_NAME":"STARLINK-4441","OBJECT_ID":"2022-099AX","EPOCH":"2022-08-29T16:00:00.999936","MEAN_MOTION":15.65840284,"ECCENTRICITY":0.000191,"INCLINATION":97.6558,"RA_OF_ASC_NODE":0.4697,"ARG_OF_PERICENTER":58.5712,"MEAN_ANOMALY":33.0292,"EPHEMERIS_TYPE":0,"CLASSIFICATION_TYPE":"U","NORAD_CAT_ID":53510,"ELEMENT_SET_NO":999,"REV_AT_EPOCH":288,"BSTAR":-0.013505,"MEAN_MOTION_DOT":-0.01228715,"MEAN_MOTION_DDOT":0},{"OBJECT_NAME":"FALCON 9 DEB","OBJECT_ID":"2022-099AY","EPOCH":"2022-08-29T09:30:30.479904","MEAN_MOTION":15.89569153,"ECCENTRICITY":0.0009816,"INCLINATION":97.6792,"RA_OF_ASC_NODE":0.5575,"ARG_OF_PERICENTER":220.9676,"MEAN_ANOMALY":139.0859,"EPHEMERIS_TYPE":0,"CLASSIFICATION_TYPE":"U","NORAD_CAT_ID":53511,"ELEMENT_SET_NO":999,"REV_AT_EPOCH":262,"BSTAR":0.00044371,"MEAN_MOTION_DOT":0.00128949,"MEAN_MOTION_DDOT":8.3004e-6},{"OBJECT_NAME":"FALCON 9 DEB","OBJECT_ID":"2022-099AZ","EPOCH":"2022-08-29T09:23:49.551072","MEAN_MOTION":15.90170422,"ECCENTRICITY":0.0007383,"INCLINATION":97.677,"RA_OF_ASC_NODE":0.5586,"ARG_OF_PERICENTER":217.5752,"MEAN_ANOMALY":142.5005,"EPHEMERIS_TYPE":0,"CLASSIFICATION_TYPE":"U","NORAD_CAT_ID":53512,"ELEMENT_SET_NO":999,"REV_AT_EPOCH":262,"BSTAR":0.00047096,"MEAN_MOTION_DOT":0.00140876,"MEAN_MOTION_DDOT":9.4968e-6},{"OBJECT_NAME":"FALCON 9 DEB","OBJECT_ID":"2022-099BA","EPOCH":"2022-08-29T13:37:59.744640","MEAN_MOTION":15.91616686,"ECCENTRICITY":0.0010481,"INCLINATION":97.6733,"RA_OF_ASC_NODE":0.7811,"ARG_OF_PERICENTER":200.9773,"MEAN_ANOMALY":159.1071,"EPHEMERIS_TYPE":0,"CLASSIFICATION_TYPE":"U","NORAD_CAT_ID":53513,"ELEMENT_SET_NO":999,"REV_AT_EPOCH":265,"BSTAR":0.00057993,"MEAN_MOTION_DOT":0.00187433,"MEAN_MOTION_DDOT":1.5246e-5},{"OBJECT_NAME":"FALCON 9 DEB","OBJECT_ID":"2022-099BB","EPOCH":"2022-08-29T13:33:45.011520","MEAN_MOTION":15.91850773,"ECCENTRICITY":0.0009768,"INCLINATION":97.6717,"RA_OF_ASC_NODE":0.782,"ARG_OF_PERICENTER":185.2922,"MEAN_ANOMALY":174.8249,"EPHEMERIS_TYPE":0,"CLASSIFICATION_TYPE":"U","NORAD_CAT_ID":53514,"ELEMENT_SET_NO":999,"REV_AT_EPOCH":265,"BSTAR":0.0005549,"MEAN_MOTION_DOT":0.0018137,"MEAN_MOTION_DDOT":1.4452e-5},{"OBJECT_NAME":"2022-100A","OBJECT_ID":"2022-100A","EPOCH":"2022-08-29T10:00:30.959136","MEAN_MOTION":15.22802582,"ECCENTRICITY":0.0007815,"INCLINATION":35.0009,"RA_OF_ASC_NODE":146.8483,"ARG_OF_PERICENTER":344.4141,"MEAN_ANOMALY":15.6339,"EPHEMERIS_TYPE":0,"CLASSIFICATION_TYPE":"U","NORAD_CAT_ID":53522,"ELEMENT_SET_NO":999,"REV_AT_EPOCH":148,"BSTAR":0.00024591,"MEAN_MOTION_DOT":5.861e-5,"MEAN_MOTION_DDOT":0},{"OBJECT_NAME":"2022-100B","OBJECT_ID":"2022-100B","EPOCH":"2022-08-29T08:22:01.352064","MEAN_MOTION":15.23473865,"ECCENTRICITY":0.0008381,"INCLINATION":35.0016,"RA_OF_ASC_NODE":147.2367,"ARG_OF_PERICENTER":347.4307,"MEAN_ANOMALY":12.6199,"EPHEMERIS_TYPE":0,"CLASSIFICATION_TYPE":"U","NORAD_CAT_ID":53523,"ELEMENT_SET_NO":999,"REV_AT_EPOCH":147,"BSTAR":0.00039544,"MEAN_MOTION_DOT":9.645e-5,"MEAN_MOTION_DDOT":0},{"OBJECT_NAME":"2022-100C","OBJECT_ID":"2022-100C","EPOCH":"2022-08-29T05:49:14.718144","MEAN_MOTION":15.2284011,"ECCENTRICITY":0.0005955,"INCLINATION":35.0013,"RA_OF_ASC_NODE":147.9019,"ARG_OF_PERICENTER":342.1977,"MEAN_ANOMALY":156.9686,"EPHEMERIS_TYPE":0,"CLASSIFICATION_TYPE":"U","NORAD_CAT_ID":53524,"ELEMENT_SET_NO":999,"REV_AT_EPOCH":140,"BSTAR":0.0002907,"MEAN_MOTION_DOT":6.942e-5,"MEAN_MOTION_DDOT":0},{"OBJECT_NAME":"2022-100D","OBJECT_ID":"2022-100D","EPOCH":"2022-08-29T09:53:25.374336","MEAN_MOTION":15.23799574,"ECCENTRICITY":0.0008551,"INCLINATION":35.0029,"RA_OF_ASC_NODE":146.8111,"ARG_OF_PERICENTER":356.2917,"MEAN_ANOMALY":3.7748,"EPHEMERIS_TYPE":0,"CLASSIFICATION_TYPE":"U","NORAD_CAT_ID":53525,"ELEMENT_SET_NO":999,"REV_AT_EPOCH":143,"BSTAR":0.00033343,"MEAN_MOTION_DOT":8.205e-5,"MEAN_MOTION_DDOT":0},{"OBJECT_NAME":"2022-100E","OBJECT_ID":"2022-100E","EPOCH":"2022-08-29T09:58:27.517728","MEAN_MOTION":15.22727669,"ECCENTRICITY":0.0005799,"INCLINATION":35.0029,"RA_OF_ASC_NODE":146.8399,"ARG_OF_PERICENTER":351.9933,"MEAN_ANOMALY":8.0683,"EPHEMERIS_TYPE":0,"CLASSIFICATION_TYPE":"U","NORAD_CAT_ID":53526,"ELEMENT_SET_NO":999,"REV_AT_EPOCH":143,"BSTAR":0.00015953,"MEAN_MOTION_DOT":3.778e-5,"MEAN_MOTION_DDOT":0},{"OBJECT_NAME":"STARLINK-4511","OBJECT_ID":"2022-101A","EPOCH":"2022-08-29T14:00:01.000224","MEAN_MOTION":15.76555957,"ECCENTRICITY":0.0003241,"INCLINATION":53.2176,"RA_OF_ASC_NODE":106.2989,"ARG_OF_PERICENTER":4.2877,"MEAN_ANOMALY":161.1514,"EPHEMERIS_TYPE":0,"CLASSIFICATION_TYPE":"U","NORAD_CAT_ID":53527,"ELEMENT_SET_NO":999,"REV_AT_EPOCH":130,"BSTAR":-0.0082878,"MEAN_MOTION_DOT":-0.01196304,"MEAN_MOTION_DDOT":0},{"OBJECT_NAME":"STARLINK-4503","OBJECT_ID":"2022-101B","EPOCH":"2022-08-29T14:00:01.000224","MEAN_MOTION":15.76543204,"ECCENTRICITY":0.0003285,"INCLINATION":53.2176,"RA_OF_ASC_NODE":106.301,"ARG_OF_PERICENTER":353.4003,"MEAN_ANOMALY":171.5076,"EPHEMERIS_TYPE":0,"CLASSIFICATION_TYPE":"U","NORAD_CAT_ID":53528,"ELEMENT_SET_NO":999,"REV_AT_EPOCH":130,"BSTAR":-0.0083115,"MEAN_MOTION_DOT":-0.01198762,"MEAN_MOTION_DDOT":0},{"OBJECT_NAME":"STARLINK-4478","OBJECT_ID":"2022-101C","EPOCH":"2022-08-29T14:00:01.000224","MEAN_MOTION":15.76572754,"ECCENTRICITY":0.0003187,"INCLINATION":53.2176,"RA_OF_ASC_NODE":106.2981,"ARG_OF_PERICENTER":359.8646,"MEAN_ANOMALY":166.0963,"EPHEMERIS_TYPE":0,"CLASSIFICATION_TYPE":"U","NORAD_CAT_ID":53529,"ELEMENT_SET_NO":999,"REV_AT_EPOCH":130,"BSTAR":-0.0082923,"MEAN_MOTION_DOT":-0.01197644,"MEAN_MOTION_DDOT":0}]
